[{"OBJECT_NAME":"SHIYAN-20B (SY-20B)","OBJECT_ID":"2022-169B","EPOCH":"2026-03-09T23:45:17.388576","MEAN_MOTION":14.29504375,"ECCENTRICITY":0.00224209,"INCLINATION":59.9961,"RA_OF_ASC_NODE":208.3414,"ARG_OF_PERICENTER":132.0718,"MEAN_ANOMALY":228.2229,"EPHEMERIS_TYPE":0,"CLASSIFICATION_TYPE":"U","NORAD_CAT_ID":54700,"ELEMENT_SET_NO":999,"REV_AT_EPOCH":16917,"BSTAR":0.00010959596,"MEAN_MOTION_DOT":1.45e-6,"MEAN_MOTION_DDOT":0},{"OBJECT_NAME":"NOAA 16 DEB","OBJECT_ID":"2000-055PG","EPOCH":"2026-03-07T12:12:08.755488","MEAN_MOTION":14.25441907,"ECCENTRICITY":0.00303782,"INCLINATION":98.7678,"RA_OF_ASC_NODE":171.8069,"ARG_OF_PERICENTER":110.8885,"MEAN_ANOMALY":249.5551,"EPHEMERIS_TYPE":0,"CLASSIFICATION_TYPE":"U","NORAD_CAT_ID":41667,"ELEMENT_SET_NO":999,"REV_AT_EPOCH":51363,"BSTAR":0.00088788019,"MEAN_MOTION_DOT":2.062e-5,"MEAN_MOTION_DDOT":0}]
